GSAT0233 (GALILEO 33)   
1 67160U 25302A   26135.67199747  .00000038  00000+0  00000+0 0  9998
2 67160  54.3160 103.0567 0001737 246.2381 114.9095  1.70474189  2571
GSAT0234 (GALILEO 34)   
1 67162U 25302C   26134.20830919  .00000049  00000+0  00000+0 0  9993
2 67162  54.3152 103.0978 0003729 298.2730  64.6782  1.70474268  2604
